*******************************************************************************
JPL/HORIZONS               545 Messalina (A904 TC)         2020-Jun-22 09:13:36
Rec #:     545 (+COV) Soln.date: 2020-May-20_01:07:47   # obs: 2981 (1904-2020)
 
IAU76/J2000 helio. ecliptic osc. elements (au, days, deg., period=Julian yrs):
 
  EPOCH=  2455556.5 ! 2010-Dec-26.00 (TDB)         Residual RMS= .25866
   EC= .1686877597562953   QR= 2.661022318450557   TP= 2455796.8137378772
   OM= 334.2394455428196   W=  326.4026952120846   IN= 11.12407828968849
   A= 3.200990181102663    MA= 318.6423208634339   ADIST= 3.740958043754769
   PER= 5.7271             N= .172098684           ANGMOM= .030335765
   DAN= 2.72677            DDN= 3.61831            L= 301.1411786
   B= -6.1286143           MOID= 1.65491998        TP= 2011-Aug-23.3137378772
 
Asteroid physical parameters (km, seconds, rotational period in hours):
   GM= n.a.                RAD= 56.3155            ROTPER= 7.2
   H= 8.8                  G= .150                 B-V= .686
                           ALBEDO= .041            STYP= Cb
 
ASTEROID comments: 
1: soln ref.= JPL#49, OCC=0
2: source=ORB
*******************************************************************************
 
 
*******************************************************************************
Ephemeris / WWW_USER Mon Jun 22 09:13:36 2020 Pasadena, USA      / Horizons
*******************************************************************************
Target body name: 545 Messalina (A904 TC)         {source: JPL#49}
Center body name: Solar System Barycenter (0)     {source: DE431}
Center-site name: BODY CENTER
*******************************************************************************
Start time      : A.D. 1969-Jun-28 00:00:00.0000 TDB
Stop  time      : A.D. 2071-May-04 00:00:00.0000 TDB
Step-size       : 7200 minutes
*******************************************************************************
Center geodetic : 0.00000000,0.00000000,0.0000000 {E-lon(deg),Lat(deg),Alt(km)}
Center cylindric: 0.00000000,0.00000000,0.0000000 {E-lon(deg),Dxy(km),Dz(km)}
Center radii    : (undefined)                                                  
Small perturbers: Yes                             {source: SB431-N16}
Output units    : AU-D
Output type     : GEOMETRIC cartesian states
Output format   : 2 (position and velocity)
Reference frame : Ecliptic of J2000.0
*******************************************************************************
Initial IAU76/J2000 heliocentric ecliptic osculating elements (au, days, deg.):
  EPOCH=  2455556.5 ! 2010-Dec-26.00 (TDB)         Residual RMS= .25866        
   EC= .1686877597562953   QR= 2.661022318450557   TP= 2455796.8137378772      
   OM= 334.2394455428196   W=  326.4026952120846   IN= 11.12407828968849       
  Equivalent ICRF heliocentric equatorial cartesian coordinates (au, au/d):
   X=-1.209751075404596E+00  Y=-2.088904291641709E+00  Z=-1.503698264794539E+00
  VX= 1.019459807430848E-02 VY=-3.238113801074634E-03 VZ=-1.113238786213154E-03
Asteroid physical parameters (km, seconds, rotational period in hours):        
   GM= n.a.                RAD= 56.3155            ROTPER= 7.2                 
   H= 8.8                  G= .150                 B-V= .686                   
                           ALBEDO= .041            STYP= Cb                    
*******************************************************************************
            JDTDB,            Calendar Date (TDB),        delta-T,                      X,                      Y,                      Z,                     VX,                     VY,                     VZ,
******************************************************************************************************************************************************************************************************************
$$SOE
2473720.500000000, A.D. 2060-Sep-18 00:00:00.0000,      69.182449, -3.204763215609849E+00,  1.873757331663197E+00,  2.753557936913177E-02, -3.351401325581465E-03, -7.220971337387535E-03, -1.590487453664523E-03,
2473725.500000000, A.D. 2060-Sep-23 00:00:00.0000,      69.182414, -3.221288450163862E+00,  1.837517584365067E+00,  1.958135414956313E-02, -3.258564025912432E-03, -7.274781392572599E-03, -1.591164676939459E-03,
2473730.500000000, A.D. 2060-Sep-28 00:00:00.0000,      69.182390, -3.237347572792639E+00,  1.801010987573335E+00,  1.162431341649039E-02, -3.164956881507103E-03, -7.327709539934570E-03, -1.591613409151568E-03,
2473735.500000000, A.D. 2060-Oct-03 00:00:00.0000,      69.182378, -3.252936739190603E+00,  1.764241974909017E+00,  3.665603399261819E-03, -3.070581865328249E-03, -7.379746114896576E-03, -1.591832135618580E-03,
2473740.500000000, A.D. 2060-Oct-08 00:00:00.0000,      69.182376, -3.268052115006848E+00,  1.727215028796219E+00, -4.293622023195538E-03, -2.975440987096249E-03, -7.430881260207451E-03, -1.591819311164085E-03,
2473745.500000000, A.D. 2060-Oct-13 00:00:00.0000,      69.182386, -3.282689876041279E+00,  1.689934681434416E+00, -1.225220116951392E-02, -2.879536298252390E-03, -7.481104922372229E-03, -1.591573359964144E-03,
2473750.500000000, A.D. 2060-Oct-18 00:00:00.0000,      69.182409, -3.296846208465874E+00,  1.652405515788679E+00, -2.020896440229270E-02, -2.782869897043086E-03, -7.530406848044080E-03, -1.591092675407099E-03,
2473755.500000000, A.D. 2060-Oct-23 00:00:00.0000,      69.182445, -3.310517309071663E+00,  1.614632166598006E+00, -2.816273397383662E-02, -2.685443933714670E-03, -7.578776580394038E-03, -1.590375619966609E-03,
2473760.500000000, A.D. 2060-Oct-28 00:00:00.0000,      69.182493, -3.323699385541977E+00,  1.576619321401805E+00, -3.611232387129686E-02, -2.587260615852629E-03, -7.626203455479244E-03, -1.589420525091674E-03,
2473765.500000000, A.D. 2060-Nov-02 00:00:00.0000,      69.182552, -3.336388656752954E+00,  1.538371721584632E+00, -4.405653966132826E-02, -2.488322213936336E-03, -7.672676598559497E-03, -1.588225691122891E-03,
2473770.500000000, A.D. 2060-Nov-07 00:00:00.0000,      69.182621, -3.348581353102281E+00,  1.499894163439697E+00, -5.199417833439206E-02, -2.388631067058911E-03, -7.718184920262873E-03, -1.586789387232765E-03,
2473775.500000000, A.D. 2060-Nov-12 00:00:00.0000,      69.182699, -3.360273716866362E+00,  1.461191499251745E+00, -5.992402814875009E-02, -2.288189588528564E-03, -7.762717112714368E-03, -1.585109851354688E-03,
2473780.500000000, A.D. 2060-Nov-17 00:00:00.0000,      69.182789, -3.371462002585072E+00,  1.422268638398840E+00, -6.784486847403279E-02, -2.187000271343466E-03, -7.806261645874799E-03, -1.583185290085023E-03,
2473785.500000000, A.D. 2060-Nov-22 00:00:00.0000,      69.182890, -3.382142477474191E+00,  1.383130548471763E+00, -7.575546963429758E-02, -2.085065693838586E-03, -7.848806764147752E-03, -1.581013878583204E-03,
2473790.500000000, A.D. 2060-Nov-27 00:00:00.0000,      69.182999, -3.392311421866999E+00,  1.343782256409999E+00, -8.365459275064448E-02, -1.982388525717220E-03, -7.890340483101813E-03, -1.578593760497282E-03,
2473795.500000000, A.D. 2060-Dec-02 00:00:00.0000,      69.183115, -3.401965129687023E+00,  1.304228849654120E+00, -9.154098958354202E-02, -1.878971534475769E-03, -7.930850586182016E-03, -1.575923047922137E-03,
2473800.500000000, A.D. 2060-Dec-07 00:00:00.0000,      69.183237, -3.411099908953782E+00,  1.264475477314730E+00, -9.941340237502236E-02, -1.774817592169130E-03, -7.970324621368832E-03, -1.572999821389502E-03,
2473805.500000000, A.D. 2060-Dec-12 00:00:00.0000,      69.183364, -3.419712082323126E+00,  1.224527351358266E+00, -1.072705636909083E-01, -1.669929682474130E-03, -8.008749897777940E-03, -1.569822129890082E-03,
2473810.500000000, A.D. 2060-Dec-17 00:00:00.0000,      69.183497, -3.427797987663571E+00,  1.184389747809931E+00, -1.151111962632312E-01, -1.564310908024735E-03, -8.046113482205406E-03, -1.566387990928853E-03,
2473815.500000000, A.D. 2060-Dec-22 00:00:00.0000,      69.183636, -3.435353978669941E+00,  1.144068007974032E+00, -1.229340128330110E-01, -1.457964497993179E-03, -8.082402195629482E-03, -1.562695390613460E-03,
2473820.500000000, A.D. 2060-Dec-27 00:00:00.0000,      69.183778, -3.442376425515489E+00,  1.103567539671863E+00, -1.307377159935562E-01, -1.350893815898622E-03, -8.117602609688435E-03, -1.558742283774717E-03,
2473825.500000000, A.D. 2061-Jan-01 00:00:00.0000,      69.183920, -3.448861715543610E+00,  1.062893818497221E+00, -1.385209980344475E-01, -1.243102367633393E-03, -8.151701043157232E-03, -1.554526594117931E-03,
2473830.500000000, A.D. 2061-Jan-06 00:00:00.0000,      69.184062, -3.454806254000212E+00,  1.022052389089491E+00, -1.462825407863480E-01, -1.134593809703246E-03, -8.184683558444780E-03, -1.550046214403941E-03,
2473835.500000000, A.D. 2061-Jan-11 00:00:00.0000,      69.184203, -3.460206464807837E+00,  9.810488664241491E-01, -1.540210154667961E-01, -1.025371957679988E-03, -8.216535958131802E-03, -1.545299006658795E-03,
2473840.500000000, A.D. 2061-Jan-16 00:00:00.0000,      69.184343, -3.465058791382549E+00,  9.398889371204346E-01, -1.617350825271114E-01, -9.154407948643341E-04, -8.247243781576090E-03, -1.540282802411032E-03,
2473845.500000000, A.D. 2061-Jan-21 00:00:00.0000,      69.184483, -3.469359697494700E+00,  8.985783607657478E-01, -1.694233915005604E-01, -8.048044811720449E-04, -8.276792301615281E-03, -1.534995402958060E-03,
2473850.500000000, A.D. 2061-Jan-26 00:00:00.0000,      69.184618, -3.473105668174833E+00,  8.571229712561939E-01, -1.770845808519523E-01, -6.934673623323053E-04, -8.305166521414923E-03, -1.529434579676374E-03,
2473855.500000000, A.D. 2061-Jan-31 00:00:00.0000,      69.184748, -3.476293210666715E+00,  8.155286781526773E-01, -1.847172778289566E-01, -5.814339795601593E-04, -8.332351171370432E-03, -1.523598074404347E-03,
